{
  "type": "FeatureCollection",
  "features": [
    {
      "type": "Feature",
      "properties": {
        "norad_id": 58647,
        "name": "TIANMU-1 13",
        "group": "weather",
        "lat": -74.20649204969631,
        "lon": 35.04516716916147,
        "alt_km": 495.65984004656093,
        "timestamp": "2025-12-14T05:42:18.099747+00:00",
        "meta_object_name": "TIANMU-1 13",
        "meta_object_id": "2023-205C",
        "meta_epoch": "2025-12-13T15:51:37.826208",
        "meta_mean_motion": 15.24541752,
        "meta_eccentricity": 0.00060287,
        "meta_inclination": 97.3627,
        "meta_ra_of_asc_node": 7.2746,
        "meta_arg_of_pericenter": 262.9426,
        "meta_mean_anomaly": 97.1126,
        "meta_ephemeris_type": 0,
        "meta_classification_type": "U",
        "meta_norad_cat_id": 58647,
        "meta_element_set_no": 999,
        "meta_rev_at_epoch": 10921,
        "meta_bstar": 0.0003321585,
        "meta_mean_motion_dot": 8.111e-05,
        "meta_mean_motion_ddot": 0,
        "tle_line1": "1 58647U 23205C   25347.66085447  .00008111  00000+0  33216-3 0  9991",
        "tle_line2": "2 58647  97.3627   7.2746 0006028 262.9426  97.1126 15.24541752109214"
      },
      "geometry": {
        "type": "Point",
        "coordinates": [
          35.04516716916147,
          -74.20649204969631
        ]
      }
    },
    {
      "type": "Feature",
      "properties": {
        "norad_id": 58648,
        "name": "TIANMU-1 14",
        "group": "weather",
        "lat": 14.800782047892538,
        "lon": 5.232523226260573,
        "alt_km": 494.6281357661528,
        "timestamp": "2025-12-14T05:42:18.099757+00:00",
        "meta_object_name": "TIANMU-1 14",
        "meta_object_id": "2023-205D",
        "meta_epoch": "2025-12-13T15:27:44.341344",
        "meta_mean_motion": 15.24524838,
        "meta_eccentricity": 0.00068295,
        "meta_inclination": 97.3559,
        "meta_ra_of_asc_node": 6.606,
        "meta_arg_of_pericenter": 268.9064,
        "meta_mean_anomaly": 91.1391,
        "meta_ephemeris_type": 0,
        "meta_classification_type": "U",
        "meta_norad_cat_id": 58648,
        "meta_element_set_no": 999,
        "meta_rev_at_epoch": 10921,
        "meta_bstar": 0.00031551416,
        "meta_mean_motion_dot": 7.698e-05,
        "meta_mean_motion_ddot": 0,
        "tle_line1": "1 58648U 23205D   25347.64426321  .00007698  00000+0  31551-3 0  9999",
        "tle_line2": "2 58648  97.3559   6.6060 0006829 268.9064  91.1391 15.24524838109218"
      },
      "geometry": {
        "type": "Point",
        "coordinates": [
          5.232523226260573,
          14.800782047892538
        ]
      }
    },
    {
      "type": "Feature",
      "properties": {
        "norad_id": 58660,
        "name": "TIANMU-1 19",
        "group": "weather",
        "lat": -70.64892730144594,
        "lon": 121.11152394013915,
        "alt_km": 487.2837307183945,
        "timestamp": "2025-12-14T05:42:18.099768+00:00",
        "meta_object_name": "TIANMU-1 19",
        "meta_object_id": "2023-208A",
        "meta_epoch": "2025-12-13T14:18:07.101792",
        "meta_mean_motion": 15.27875204,
        "meta_eccentricity": 0.00041342,
        "meta_inclination": 97.4384,
        "meta_ra_of_asc_node": 98.6311,
        "meta_arg_of_pericenter": 248.9684,
        "meta_mean_anomaly": 111.1114,
        "meta_ephemeris_type": 0,
        "meta_classification_type": "U",
        "meta_norad_cat_id": 58660,
        "meta_element_set_no": 999,
        "meta_rev_at_epoch": 10895,
        "meta_bstar": 0.0005294106,
        "meta_mean_motion_dot": 0.00014348,
        "meta_mean_motion_ddot": 0,
        "tle_line1": "1 58660U 23208A   25347.59591553  .00014348  00000+0  52941-3 0  9996",
        "tle_line2": "2 58660  97.4384  98.6311 0004134 248.9684 111.1114 15.27875204108957"
      },
      "geometry": {
        "type": "Point",
        "coordinates": [
          121.11152394013915,
          -70.64892730144594
        ]
      }
    },
    {
      "type": "Feature",
      "properties": {
        "norad_id": 58661,
        "name": "TIANMU-1 20",
        "group": "weather",
        "lat": 8.433717071723985,
        "lon": 98.61139773919378,
        "alt_km": 481.8876417872116,
        "timestamp": "2025-12-14T05:42:18.099777+00:00",
        "meta_object_name": "TIANMU-1 20",
        "meta_object_id": "2023-208B",
        "meta_epoch": "2025-12-13T15:31:57.342144",
        "meta_mean_motion": 15.29063889,
        "meta_eccentricity": 0.00063137,
        "meta_inclination": 97.4321,
        "meta_ra_of_asc_node": 99.1306,
        "meta_arg_of_pericenter": 262.0627,
        "meta_mean_anomaly": 97.9897,
        "meta_ephemeris_type": 0,
        "meta_classification_type": "U",
        "meta_norad_cat_id": 58661,
        "meta_element_set_no": 999,
        "meta_rev_at_epoch": 10903,
        "meta_bstar": 0.0004028021,
        "meta_mean_motion_dot": 0.00011302,
        "meta_mean_motion_ddot": 0,
        "tle_line1": "1 58661U 23208B   25347.64719146  .00011302  00000+0  40280-3 0  9993",
        "tle_line2": "2 58661  97.4321  99.1306 0006313 262.0627  97.9897 15.29063889109033"
      },
      "geometry": {
        "type": "Point",
        "coordinates": [
          98.61139773919378,
          8.433717071723985
        ]
      }
    },
    {
      "type": "Feature",
      "properties": {
        "norad_id": 58662,
        "name": "TIANMU-1 21",
        "group": "weather",
        "lat": 26.50242571194019,
        "lon": 97.9009749955112,
        "alt_km": 472.91487313255857,
        "timestamp": "2025-12-14T05:42:18.099788+00:00",
        "meta_object_name": "TIANMU-1 21",
        "meta_object_id": "2023-208C",
        "meta_epoch": "2025-12-13T15:28:35.096160",
        "meta_mean_motion": 15.31577886,
        "meta_eccentricity": 0.00058749,
        "meta_inclination": 97.4369,
        "meta_ra_of_asc_node": 101.0407,
        "meta_arg_of_pericenter": 256.2387,
        "meta_mean_anomaly": 103.82,
        "meta_ephemeris_type": 0,
        "meta_classification_type": "U",
        "meta_norad_cat_id": 58662,
        "meta_element_set_no": 999,
        "meta_rev_at_epoch": 10913,
        "meta_bstar": 0.00043180944,
        "meta_mean_motion_dot": 0.00013104,
        "meta_mean_motion_ddot": 0,
        "tle_line1": "1 58662U 23208C   25347.64485065  .00013104  00000+0  43181-3 0  9999",
        "tle_line2": "2 58662  97.4369 101.0407 0005874 256.2387 103.8200 15.31577886109136"
      },
      "geometry": {
        "type": "Point",
        "coordinates": [
          97.9009749955112,
          26.50242571194019
        ]
      }
    },
    {
      "type": "Feature",
      "properties": {
        "norad_id": 58663,
        "name": "TIANMU-1 22",
        "group": "weather",
        "lat": -70.7877352915934,
        "lon": 121.34688490513062,
        "alt_km": 488.33820946176,
        "timestamp": "2025-12-14T05:42:18.099801+00:00",
        "meta_object_name": "TIANMU-1 22",
        "meta_object_id": "2023-208D",
        "meta_epoch": "2025-12-13T14:18:00.281376",
        "meta_mean_motion": 15.27627969,
        "meta_eccentricity": 0.0002681,
        "meta_inclination": 97.4377,
        "meta_ra_of_asc_node": 98.6896,
        "meta_arg_of_pericenter": 282.4547,
        "meta_mean_anomaly": 77.6393,
        "meta_ephemeris_type": 0,
        "meta_classification_type": "U",
        "meta_norad_cat_id": 58663,
        "meta_element_set_no": 999,
        "meta_rev_at_epoch": 10896,
        "meta_bstar": 0.0004971806,
        "meta_mean_motion_dot": 0.00013365,
        "meta_mean_motion_ddot": 0,
        "tle_line1": "1 58663U 23208D   25347.59583659  .00013365  00000+0  49718-3 0  9993",
        "tle_line2": "2 58663  97.4377  98.6896 0002681 282.4547  77.6393 15.27627969108965"
      },
      "geometry": {
        "type": "Point",
        "coordinates": [
          121.34688490513062,
          -70.7877352915934
        ]
      }
    },
    {
      "type": "Feature",
      "properties": {
        "norad_id": 58700,
        "name": "TIANMU-1 15",
        "group": "weather",
        "lat": 41.43075566158441,
        "lon": 163.05827999004816,
        "alt_km": 489.27572237357253,
        "timestamp": "2025-12-14T05:42:18.099811+00:00",
        "meta_object_name": "TIANMU-1 15",
        "meta_object_id": "2024-004A",
        "meta_epoch": "2025-12-11T12:56:40.540704",
        "meta_mean_motion": 15.24670451,
        "meta_eccentricity": 0.00052437,
        "meta_inclination": 97.4631,
        "meta_ra_of_asc_node": 167.0136,
        "meta_arg_of_pericenter": 303.7498,
        "meta_mean_anomaly": 56.324,
        "meta_ephemeris_type": 0,
        "meta_classification_type": "U",
        "meta_norad_cat_id": 58700,
        "meta_element_set_no": 999,
        "meta_rev_at_epoch": 10716,
        "meta_bstar": 0.00086402607,
        "meta_mean_motion_dot": 0.00021326,
        "meta_mean_motion_ddot": 0,
        "tle_line1": "1 58700U 24004A   25345.53935811  .00021326  00000+0  86403-3 0  9991",
        "tle_line2": "2 58700  97.4631 167.0136 0005243 303.7498  56.3240 15.24670451107164"
      },
      "geometry": {
        "type": "Point",
        "coordinates": [
          163.05827999004816,
          41.43075566158441
        ]
      }
    }
  ]
}